OBJECT_NAME,OBJECT_ID,EPOCH,MEAN_MOTION,ECCENTRICITY,INCLINATION,RA_OF_ASC_NODE,ARG_OF_PERICENTER,MEAN_ANOMALY,EPHEMERIS_TYPE,CLASSIFICATION_TYPE,NORAD_CAT_ID,ELEMENT_SET_NO,REV_AT_EPOCH,BSTAR,MEAN_MOTION_DOT,MEAN_MOTION_DDOT
SL-16 R/B,1994-077B,2026-06-19T07:28:17.419008,14.15572971,.00030066,70.9812,138.6935,326.4595,33.6337,0,U,23405,999,63061,.13069582E-3,.208E-5,0
ARIANE 40+ R/B,1995-021B,2026-06-19T11:26:40.352352,14.39834453,.00065982,98.4411,240.5187,186.5916,184.1144,0,U,23561,999,63389,.75369566E-4,.193E-5,0
SL-16 R/B,1995-058B,2026-06-19T11:08:55.607136,14.15509866,.00139048,71.0223,326.5766,317.3545,42.6498,0,U,23705,999,58225,.15168071E-3,.249E-5,0
SL-16 R/B,1996-051B,2026-06-19T13:56:26.792160,14.12446604,.00156705,70.7643,319.5825,333.3173,26.7138,0,U,24298,999,53603,.86737733E-4,.111E-5,0
ORBVIEW 2 (SEASTAR),1997-037A,2026-06-19T09:21:14.209920,14.35554150,.00032436,98.8690,337.4697,111.6179,248.5351,0,U,24883,999,52306,.7044278E-4,.156E-5,0
SL-16 R/B,1998-043G,2026-06-19T11:13:38.006400,14.26068958,.00109475,98.8364,124.6467,80.4627,279.7789,0,U,25400,999,45349,.3375448E-4,.35E-6,0
SL-16 R/B,1998-045B,2026-06-19T13:36:09.552672,14.16202462,.00092758,71.0116,327.3247,238.6654,121.3562,0,U,25407,999,44152,-.61783065E-4,-.17E-5,0
ISS (ZARYA),1998-067A,2026-06-19T12:16:41.638656,15.49315858,.00045965,51.6332,288.5889,205.0015,155.0751,0,U,25544,999,57211,.1560528E-3,.8252E-4,0
CZ-4B R/B,1999-025C,2026-06-19T11:22:33.734784,14.18283839,.00379977,98.6482,212.2550,53.2517,48.0039,0,U,25732,999,40259,.33618731E-4,.27E-6,0
OKEAN-O,1999-039A,2026-06-19T04:08:15.849888,14.80469496,.00015611,97.9315,228.9475,71.7929,288.3453,0,U,25860,999,44940,.68166487E-4,.469E-5,0
SL-16 R/B,1999-039B,2026-06-19T09:28:39.909504,14.81847020,.00134247,97.9837,229.2517,289.0558,70.9201,0,U,25861,999,45192,.51444157E-4,.353E-5,0
DELTA 2 R/B,1999-041E,2026-06-19T12:16:07.527936,14.12018937,.05008478,51.7651,254.5131,288.8870,65.8407,0,U,25876,999,37741,.88505457E-4,.313E-5,0
HELIOS 1B,1999-064A,2026-06-19T11:09:32.439456,14.88011733,.000255,98.1613,75.6707,88.1926,271.9582,0,U,25977,999,70039,.11754212E-3,.102E-4,0
TERRA,1999-068A,2026-06-19T13:41:13.817184,14.61104662,.00017729,97.9455,220.0221,181.5510,339.0816,0,U,25994,999,40995,.64190832E-4,.271E-5,0
SL-16 R/B,2000-006B,2026-06-19T11:12:56.397024,14.15834373,.00156599,71.0018,243.8310,19.5397,340.6323,0,U,26070,999,36296,.7274359E-4,.95E-6,0
TITAN 4B R/B,2000-047B,2026-06-19T13:50:52.990080,15.10208849,.00458523,67.9885,113.8464,284.5655,75.0411,0,U,26474,999,40829,.15702337E-3,.2495E-4,0
ENVISAT,2002-009A,2026-06-19T15:16:12.546048,14.39065251,.00013775,98.3835,121.9002,89.0676,91.6083,0,U,27386,999,27383,.33422072E-4,.6E-6,0
IDEFIX & ARIANE 42P R/B,2002-021B,2026-06-19T13:50:24.273312,14.31082971,.00106097,98.5942,108.0340,246.0039,114.0034,0,U,27422,999,25859,.74887924E-4,.153E-5,0
AQUA,2002-022A,2026-06-19T15:56:28.156992,14.62161192,.00010084,98.4277,139.9965,54.6608,57.0914,0,U,27424,999,28363,.12426025E-3,.576E-5,0
CZ-4B R/B,2002-024C,2026-06-19T14:06:03.321216,14.14564629,.00512115,98.8698,223.3922,93.5691,33.8662,0,U,27432,999,24364,.30322191E-4,.15E-6,0
MIDORI II (ADEOS-II),2002-056A,2026-06-19T14:06:53.550720,14.29350677,.0002177,98.7878,129.8684,73.5946,286.5474,0,U,27597,999,22485,.91104355E-4,.187E-5,0
H-2A R/B,2002-056E,2026-06-19T14:46:37.128864,14.33822922,.00692915,98.3312,127.2017,217.2347,316.7689,0,U,27601,999,22871,.65866667E-4,.146E-5,0
CZ-4B R/B,2003-049C,2026-06-19T13:39:39.013056,14.55101454,.00469122,98.6896,169.5106,281.1238,78.4685,0,U,28059,999,20141,.58954489E-4,.206E-5,0
CZ-2C R/B,2004-012C,2026-06-19T04:30:36.001152,15.79325175,.00095778,97.7074,246.0842,275.1367,84.8806,0,U,28222,999,22021,.5177342E-3,.93829E-3,0
SL-16 R/B,2004-021B,2026-06-19T06:47:00.631680,14.14607591,.00071828,71.0006,19.2915,252.1880,107.8460,0,U,28353,999,13720,-.8029221E-4,-.202E-5,0
CZ-4B R/B,2004-035C,2026-06-19T13:14:06.002304,15.30654191,.00296372,97.3362,203.5983,329.2531,30.6973,0,U,28415,999,19548,.20455708E-3,.6064E-4,0
CZ-2C R/B,2004-046B,2026-06-19T13:48:42.180480,14.27026888,.01386042,98.1943,79.2072,213.1555,146.0884,0,U,28480,999,12303,.32226058E-4,.45E-6,0
ARIANE 5 R/B,2004-049H,2026-06-19T11:42:29.250720,14.85451455,.00843341,98.2722,342.8294,22.0227,338.4576,0,U,28499,999,16090,.53703399E-4,.428E-5,0
CZ-2D R/B,2005-024B,2026-06-19T13:52:25.356000,15.69779759,.00029674,97.3481,190.1257,49.2579,310.8941,0,U,28738,999,15571,.40689034E-3,.48463E-3,0
ALOS (DAICHI),2006-002A,2026-06-19T14:36:53.144352,14.70054335,.0001355,98.1324,126.1687,56.3363,303.7972,0,U,28931,999,8845,.13555794E-3,.764E-5,0
