SL-16 R/B               
1 23405U 94077B   26170.31131272  .00000208  00000+0  13070-3 0  9990
2 23405  70.9812 138.6935 0003006 326.4595  33.6337 14.15572971630614
ARIANE 40+ R/B          
1 23561U 95021B   26170.47685593  .00000193  00000+0  75370-4 0  9995
2 23561  98.4411 240.5187 0006598 186.5916 184.1144 14.39834453633893
SL-16 R/B               
1 23705U 95058B   26170.46453249  .00000249  00000+0  15168-3 0  9995
2 23705  71.0223 326.5766 0013904 317.3545  42.6498 14.15509866582254
SL-16 R/B               
1 24298U 96051B   26170.58086565  .00000111  00000+0  86738-4 0  9993
2 24298  70.7643 319.5825 0015670 333.3173  26.7138 14.12446604536035
ORBVIEW 2 (SEASTAR)     
1 24883U 97037A   26170.38974780  .00000156  00000+0  70443-4 0  9996
2 24883  98.8690 337.4697 0003243 111.6179 248.5351 14.35554150523061
SL-16 R/B               
1 25400U 98043G   26170.46780100  .00000035  00000+0  33754-4 0  9990
2 25400  98.8364 124.6467 0010947  80.4627 279.7789 14.26068958453492
SL-16 R/B               
1 25407U 98045B   26170.56677723 -.00000170  00000+0 -61783-4 0  9991
2 25407  71.0116 327.3247 0009275 238.6654 121.3562 14.16202462441525
ISS (ZARYA)             
1 25544U 98067A   26170.51159304  .00008252  00000+0  15605-3 0  9990
2 25544  51.6332 288.5889 0004596 205.0015 155.0751 15.49315858572116
CZ-4B R/B               
1 25732U 99025C   26170.47400156  .00000027  00000+0  33619-4 0  9991
2 25732  98.6482 212.2550 0037997  53.2517  48.0039 14.18283839402594
OKEAN-O                 
1 25860U 99039A   26170.17240567  .00000469  00000+0  68166-4 0  9998
2 25860  97.9315 228.9475 0001561  71.7929 288.3453 14.80469496449407
SL-16 R/B               
1 25861U 99039B   26170.39490636  .00000353  00000+0  51444-4 0  9990
2 25861  97.9837 229.2517 0013424 289.0558  70.9201 14.81847020451921
DELTA 2 R/B             
1 25876U 99041E   26170.51119824  .00000313  00000+0  88505-4 0  9994
2 25876  51.7651 254.5131 0500847 288.8870  65.8407 14.12018937377419
HELIOS 1B               
1 25977U 99064A   26170.46495879  .00001020  00000+0  11754-3 0  9999
2 25977  98.1613  75.6707 0002550  88.1926 271.9582 14.88011733700397
TERRA                   
1 25994U 99068A   26170.57029881  .00000271  00000+0  64191-4 0  9991
2 25994  97.9455 220.0221 0001772 181.5510 339.0816 14.61104662409955
SL-16 R/B               
1 26070U 00006B   26170.46731941  .00000095  00000+0  72744-4 0  9993
2 26070  71.0018 243.8310 0015659  19.5397 340.6323 14.15834373362961
TITAN 4B R/B            
1 26474U 00047B   26170.57700220  .00002495  00000+0  15702-3 0  9990
2 26474  67.9885 113.8464 0045852 284.5655  75.0411 15.10208849408293
ENVISAT                 
1 27386U 02009A   26170.63625632  .00000060  00000+0  33422-4 0  9999
2 27386  98.3835 121.9002 0001377  89.0676  91.6083 14.39065251273839
IDEFIX & ARIANE 42P R/B 
1 27422U 02021B   26170.57666983  .00000153  00000+0  74888-4 0  9995
2 27422  98.5942 108.0340 0010609 246.0039 114.0034 14.31082971258590
AQUA                    
1 27424U 02022A   26170.66421478  .00000576  00000+0  12426-3 0  9994
2 27424  98.4277 139.9965 0001008  54.6608  57.0914 14.62161192283639
CZ-4B R/B               
1 27432U 02024C   26170.58753844  .00000015  00000+0  30322-4 0  9995
2 27432  98.8698 223.3922 0051211  93.5691  33.8662 14.14564629243643
MIDORI II (ADEOS-II)    
1 27597U 02056A   26170.58811980  .00000187  00000+0  91104-4 0  9993
2 27597  98.7878 129.8684 0002177  73.5946 286.5474 14.29350677224859
H-2A R/B                
1 27601U 02056E   26170.61570751  .00000146  00000+0  65867-4 0  9993
2 27601  98.3312 127.2017 0069291 217.2347 316.7689 14.33822922228713
CZ-4B R/B               
1 28059U 03049C   26170.56920154  .00000206  00000+0  58954-4 0  9990
2 28059  98.6896 169.5106 0046912 281.1238  78.4685 14.55101454201413
CZ-2C R/B               
1 28222U 04012C   26170.18791668  .00093829  00000+0  51773-3 0  9991
2 28222  97.7074 246.0842 0009577 275.1367  84.8806 15.79325175220213
SL-16 R/B               
1 28353U 04021B   26170.28264620 -.00000202  00000+0 -80292-4 0  9994
2 28353  71.0006  19.2915 0007182 252.1880 107.8460 14.14607591137205
CZ-4B R/B               
1 28415U 04035C   26170.55145836  .00006064  00000+0  20456-3 0  9990
2 28415  97.3362 203.5983 0029637 329.2531  30.6973 15.30654191195484
CZ-2C R/B               
1 28480U 04046B   26170.57548820  .00000045  00000+0  32226-4 0  9998
2 28480  98.1943  79.2072 0138604 213.1555 146.0884 14.27026888123035
ARIANE 5 R/B            
1 28499U 04049H   26170.48783855  .00000428  00000+0  53703-4 0  9998
2 28499  98.2722 342.8294 0084334  22.0227 338.4576 14.85451455160907
CZ-2D R/B               
1 28738U 05024B   26170.57807125  .00048463  00000+0  40689-3 0  9994
2 28738  97.3481 190.1257 0002967  49.2579 310.8941 15.69779759155717
ALOS (DAICHI)           
1 28931U 06002A   26170.60894843  .00000764  00000+0  13556-3 0  9998
2 28931  98.1324 126.1687 0001355  56.3363 303.7972 14.70054335 88451
